QIANFAN-17              
1 60395U 24140S   25336.14261956  .00000073  00000+0  94922-4 0  9996
2 60395  88.9760 300.5304 0013155 233.3659 126.6283 13.50974590 66704
QIANFAN-18              
1 60396U 24140T   25336.12203657  .00000076  00000+0  98455-4 0  9997
2 60396  88.9753 300.0668 0012829 213.7045 146.3291 13.50974558 66097
QIANFAN-19              
1 61552U 24185A   25336.04282267  .00000670  00000+0  34373-3 0  9994
2 61552  88.9822  79.1647 0006211 356.3969   3.7172 14.14278513 68159
QIANFAN-20              
1 61553U 24185B   25336.10503372  .00000577  00000+0  32661-3 0  9999
2 61553  88.9820  79.4707 0006643  38.8189 321.3471 14.08824272 67997
QIANFAN-21              
1 61554U 24185C   25336.05911072  .00000819  00000+0  36023-3 0  9999
2 61554  88.9737  78.2282 0011802  47.3832 312.8352 14.22583662 68459
QIANFAN-22              
1 61555U 24185D   25336.10730431  .00000242  00000+0  19816-3 0  9995
2 61555  88.9804  80.4088 0007409  43.1525 317.0225 13.86296488 67467
QIANFAN-23              
1 61556U 24185E   25336.10394066  .00000592  00000+0  29173-3 0  9991
2 61556  88.9814  78.9724 0007369   6.5320 353.5962 14.16275419 68244
QIANFAN-24              
1 61557U 24185F   25336.07078831  .00000766  00000+0  32882-3 0  9991
2 61557  88.9795  78.3986 0008457 345.1690  14.9253 14.23786121 68503
